ONEWEB-0395             
1 50475U 21132G   25333.80357146 -.00000412  00000+0 -11984-2 0  9993
2 50475  87.8864  60.7816 0001435 100.3477 259.7812 13.11415140189583
ONEWEB-0396             
1 50476U 21132H   25334.06718014  .00000046  00000+0  84311-4 0  9995
2 50476  87.9197  14.9997 0001767 100.2568 259.8763 13.18684302195390
ONEWEB-0397             
1 50477U 21132J   25334.08203083  .00000091  00000+0  19800-3 0  9993
2 50477  87.9196  14.9972 0001870 103.3553 256.7788 13.18686004195378
ONEWEB-0398             
1 50478U 21132K   25334.00026027  .00000450  00000+0  12338-2 0  9994
2 50478  87.8867  60.7141 0001491  93.0865 267.0433 13.11417827189508
ONEWEB-0399             
1 50479U 21132L   25333.68150866  .00000036  00000+0  67069-4 0  9990
2 50479  87.8864  60.7923 0001611 122.5237 237.6047 13.11418927189459
ONEWEB-0400             
1 50480U 21132M   25334.13646057  .00000029  00000+0  41332-4 0  9992
2 50480  87.9194  14.9757 0001706  90.6043 269.5285 13.18685134195378
ONEWEB-0401             
1 50481U 21132N   25334.10511295  .00000086  00000+0  18543-3 0  9995
2 50481  87.9194  14.9794 0002008 100.2429 259.8930 13.18684702195371
ONEWEB-0402             
1 50482U 21132P   25334.06883057  .00000042  00000+0  73307-4 0  9991
2 50482  87.9195  14.9788 0002412 103.6732 256.4669 13.18684487195393
